FENGYUN 1C DEB          
1 36743U 99025EBR 26035.96945543  .00004052  00000+0  15816-2 0  9992
2 36743  98.6496  88.8530 0048750 211.5192 148.3068 14.29527596615129
FENGYUN 1C DEB          
1 36986U 99025EBS 26058.16527450  .00002805  00000+0  14173-2 0  9990
2 36986  99.1392 131.0316 0083555  28.5380 332.0330 14.15257557828255
FENGYUN 1C DEB          
1 36987U 99025EBT 26059.42055204  .00000311  00000+0  44790-3 0  9993
2 36987 100.8155 311.3451 0318170 223.1269 134.4534 13.46000024619222
FENGYUN 1C DEB          
1 36996U 99025ECC 26059.70314755  .00003822  00000+0  15469-2 0  9993
2 36996  98.2309 210.6305 0254578 124.2212 255.4036 14.12165554607921
FENGYUN 1C DEB          
1 37003U 99025ECK 26044.30044421  .00001115  00000+0  80820-3 0  9990
2 37003  98.8418  70.4772 0095340 350.5762  70.4312 13.96359490615300
FENGYUN 1C DEB          
1 37017U 99025ECZ 26054.14361872  .00003737  00000+0  72987-3 0  9997
2 37017  98.7992   5.8596 0278385 148.9709 212.8262 14.41739343622044
FENGYUN 1C DEB          
1 37021U 99025EDD 26058.28432963  .00003116  00000+0  97843-3 0  9990
2 37021  98.3831  77.4848 0176088  25.0843  35.9466 14.32692132711507
FENGYUN 1C DEB          
1 37036U 99025EDU 26053.26025251  .00000749  00000+0  47072-3 0  9995
2 37036  98.7204  48.0527 0122676 214.1840 145.1385 14.03676296647515
FENGYUN 1C DEB          
1 37042U 99025EEA 26051.55160977  .00020800  00000+0  28081-2 0  9995
2 37042  98.5908 180.7964 0052900 172.7808 187.4174 14.78132240738283
FENGYUN 1C DEB          
1 37046U 99025EEE 26057.84119196  .00001454  00000+0  62943-3 0  9994
2 37046  98.5419  75.0747 0050512  85.1293 275.5651 14.25119777652658
FENGYUN 1C DEB          
1 37053U 99025EEM 26053.12186635  .00005000  00000+0  11669-2 0  9990
2 37053  99.1390 170.7164 0040103 316.0606 170.1977 14.54750590660753
FENGYUN 1C DEB          
1 37054U 99025EEN 26043.78281632  .00000731  00000+0  34946-3 0  9995
2 37054  98.5574  29.1325 0098871 286.4124  72.6203 14.19571261653091
FENGYUN 1C DEB          
1 37056U 99025EEQ 26059.31443611  .00001795  00000+0  29925-3 0  9992
2 37056  98.9744  91.8429 0265875 272.5721  84.5065 14.50837875665368
FENGYUN 1C DEB          
1 37057U 99025EER 26041.82063127  .00000909  00000+0  49398-3 0  9992
2 37057  98.9243  59.8502 0283836 334.1552  24.5658 13.96222006644365
FENGYUN 1C DEB          
1 37064U 99025EEY 26055.67338216  .00006837  00000+0  32329-2 0  9993
2 37064  98.9033 212.8625 0106065 249.1810 109.7978 14.17090573825826
FENGYUN 1C DEB          
1 37065U 99025EEZ 26058.28311916  .00001551  00000+0  16605-2 0  9999
2 37065 103.2916 265.0359 0289758  76.1402 287.1779 13.59520523232423
FENGYUN 1C DEB          
1 37067U 99025EFB 26036.56314670  .00019290  00000+0  11462-1 0  9992
2 37067  99.5404 345.5317 0156090 325.4238  33.6852 14.01566829581768
FENGYUN 1C DEB          
1 37069U 99025EFD 26058.07596529  .00003704  00000+0  41283-2 0  9997
2 37069  95.8479   1.2950 0427449  50.3714 313.4343 13.38320839887291
FENGYUN 1C DEB          
1 37081U 99025EFR 26059.21876077  .00022548  00000+0  78793-2 0  9990
2 37081  98.6915 214.7009 0264386 128.9285 233.5782 14.17435087596703
FENGYUN 1C DEB          
1 37400U 99025EFS 26054.49095607  .00000499  00000+0  39604-3 0  9992
2 37400  98.8384 250.4549 0400724 306.1550  50.3135 13.63737658811851
