OBJECT_NAME,OBJECT_ID,EPOCH,MEAN_MOTION,ECCENTRICITY,INCLINATION,RA_OF_ASC_NODE,ARG_OF_PERICENTER,MEAN_ANOMALY,EPHEMERIS_TYPE,CLASSIFICATION_TYPE,NORAD_CAT_ID,ELEMENT_SET_NO,REV_AT_EPOCH,BSTAR,MEAN_MOTION_DOT,MEAN_MOTION_DDOT
FENGYUN 1C DEB,1999-025EBR,2026-02-04T23:16:00.949152,14.29527596,.00487501,98.6496,88.8530,211.5192,148.3068,0,U,36743,999,61512,.15816104E-2,.4052E-4,0
FENGYUN 1C DEB,1999-025EBS,2026-02-27T03:57:59.716800,14.15257557,.00835558,99.1392,131.0316,28.5380,332.0330,0,U,36986,999,82825,.14172524E-2,.2805E-4,0
FENGYUN 1C DEB,1999-025EBT,2026-02-28T10:05:35.696256,13.46000024,.03181701,100.8155,311.3451,223.1269,134.4534,0,U,36987,999,61922,.44789678E-3,.311E-5,0
FENGYUN 1C DEB,1999-025ECC,2026-02-28T16:52:31.948320,14.12165554,.02545787,98.2309,210.6305,124.2212,255.4036,0,U,36996,999,60792,.15468826E-2,.3822E-4,0
FENGYUN 1C DEB,1999-025ECK,2026-02-13T07:12:38.379744,13.96359490,.009534,98.8418,70.4772,350.5762,70.4312,0,U,37003,999,61530,.8082E-3,.1115E-4,0
FENGYUN 1C DEB,1999-025ECZ,2026-02-23T03:26:48.657408,14.41739343,.02783851,98.7992,5.8596,148.9709,212.8262,0,U,37017,999,62204,.72986946E-3,.3737E-4,0
FENGYUN 1C DEB,1999-025EDD,2026-02-27T06:49:26.080032,14.32692132,.01760881,98.3831,77.4848,25.0843,35.9466,0,U,37021,999,71150,.97842789E-3,.3116E-4,0
FENGYUN 1C DEB,1999-025EDU,2026-02-22T06:14:45.816864,14.03676296,.0122676,98.7204,48.0527,214.1840,145.1385,0,U,37036,999,64751,.47072E-3,.749E-5,0
FENGYUN 1C DEB,1999-025EEA,2026-02-20T13:14:19.084128,14.78132240,.00529001,98.5908,180.7964,172.7808,187.4174,0,U,37042,999,73828,.28080767E-2,.208E-3,0
FENGYUN 1C DEB,1999-025EEE,2026-02-26T20:11:18.985344,14.25119777,.00505129,98.5419,75.0747,85.1293,275.5651,0,U,37046,999,65265,.62943368E-3,.1454E-4,0
FENGYUN 1C DEB,1999-025EEM,2026-02-22T02:55:29.252640,14.54750590,.00401035,99.1390,170.7164,316.0606,170.1977,0,U,37053,999,66075,.11669143E-2,.5E-4,0
FENGYUN 1C DEB,1999-025EEN,2026-02-12T18:47:15.330048,14.19571261,.00988716,98.5574,29.1325,286.4124,72.6203,0,U,37054,999,65309,.34945543E-3,.731E-5,0
FENGYUN 1C DEB,1999-025EEQ,2026-02-28T07:32:47.279904,14.50837875,.02658752,98.9744,91.8429,272.5721,84.5065,0,U,37056,999,66536,.29924621E-3,.1795E-4,0
FENGYUN 1C DEB,1999-025EER,2026-02-10T19:41:42.541728,13.96222006,.02838364,98.9243,59.8502,334.1552,24.5658,0,U,37057,999,64436,.49397607E-3,.909E-5,0
FENGYUN 1C DEB,1999-025EEY,2026-02-24T16:09:40.218624,14.17090573,.01060653,98.9033,212.8625,249.1810,109.7978,0,U,37064,999,82582,.32328773E-2,.6837E-4,0
FENGYUN 1C DEB,1999-025EEZ,2026-02-27T06:47:41.495424,13.59520523,.02897589,103.2916,265.0359,76.1402,287.1779,0,U,37065,999,23242,.1660513E-2,.1551E-4,0
FENGYUN 1C DEB,1999-025EFB,2026-02-05T13:30:55.874880,14.01566829,.015609,99.5404,345.5317,325.4238,33.6852,0,U,37067,999,58176,.11462E-1,.1929E-3,0
FENGYUN 1C DEB,1999-025EFD,2026-02-27T01:49:23.401056,13.38320839,.04274495,95.8479,1.2950,50.3714,313.4343,0,U,37069,999,88729,.41283344E-2,.3704E-4,0
FENGYUN 1C DEB,1999-025EFR,2026-02-28T05:15:00.930528,14.17435087,.02643863,98.6915,214.7009,128.9285,233.5782,0,U,37081,999,59670,.78793452E-2,.22548E-3,0
FENGYUN 1C DEB,1999-025EFS,2026-02-23T11:46:58.604448,13.63737658,.04007246,98.8384,250.4549,306.1550,50.3135,0,U,37400,999,81185,.39603899E-3,.499E-5,0
